start=new Date('2022-03-09T00:00:00.000Z').valueOf();
sats=[{"FILE":"3351330","INCLINATION":"53.0538","RCS_SIZE":"LARGE","TIME_SYSTEM":"UTC","RA_OF_ASC_NODE":"45.0180","TLE_LINE1":"1 46791U 20074BE  22067.63702601 -.00000672  00000-0 -26188-4 0  9998","REF_FRAME":"TEME","SITE":"AFETR","OBJECT_TYPE":"PAYLOAD","CLASSIFICATION_TYPE":"U","BSTAR":"-0.00002618800000","TLE_LINE2":"2 46791  53.0538  45.0180 0001823  53.8213 306.2944 15.06396519 76317","CENTER_NAME":"EARTH","MEAN_MOTION_DOT":"-0.00000672","NORAD_CAT_ID":"46791","MEAN_MOTION_DDOT":"0.0000000000000","GP_ID":"198273981","ECCENTRICITY":"0.00018230","MEAN_MOTION":"15.06396519","MEAN_ELEMENT_THEORY":"SGP4","ARG_OF_PERICENTER":"53.8213","PERIOD":"95.592","MEAN_ANOMALY":"306.2944","EPHEMERIS_TYPE":"0","COUNTRY_CODE":"US","SEMIMAJOR_AXIS":"6925.359","EPOCH":"2022-03-08T15:17:19.047264","LAUNCH_DATE":"2020-10-24","OBJECT_ID":"2020-074BE","ELEMENT_SET_NO":"999","REV_AT_EPOCH":"7631","PERIAPSIS":"545.962","DECAY_DATE":null,"APOAPSIS":"548.487","OBJECT_NAME":"STARLINK-1933"},{"APOAPSIS":"548.756","DECAY_DATE":null,"OBJECT_NAME":"STARLINK-1934","REV_AT_EPOCH":"7640","PERIAPSIS":"545.787","EPOCH":"2022-03-08T07:58:07.045536","SEMIMAJOR_AXIS":"6925.407","LAUNCH_DATE":"2020-10-24","OBJECT_ID":"2020-074BF","ELEMENT_SET_NO":"999","EPHEMERIS_TYPE":"0","COUNTRY_CODE":"US","MEAN_MOTION":"15.06381058","ECCENTRICITY":"0.00021440","GP_ID":"198239283","ARG_OF_PERICENTER":"45.7127","MEAN_ELEMENT_THEORY":"SGP4","PERIOD":"95.593","MEAN_ANOMALY":"314.4037","CLASSIFICATION_TYPE":"U","BSTAR":"-0.00019622000000","NORAD_CAT_ID":"46792","MEAN_MOTION_DOT":"-0.00003202","CENTER_NAME":"EARTH","TLE_LINE2":"2 46792  53.0547  36.3884 0002144  45.7127 314.4037 15.06381058 76409","MEAN_MOTION_DDOT":"0.0000000000000","TLE_LINE1":"1 46792U 20074BF  22067.33202599 -.00003202  00000-0 -19622-3 0  9993","REF_FRAME":"TEME","OBJECT_TYPE":"PAYLOAD","SITE":"AFETR","INCLINATION":"53.0547","FILE":"3350976","RA_OF_ASC_NODE":"36.3884","RCS_SIZE":"LARGE","TIME_SYSTEM":"UTC"},{"PERIAPSIS":"545.880","REV_AT_EPOCH":"7634","APOAPSIS":"548.669","DECAY_DATE":null,"OBJECT_NAME":"STARLINK-1941","EPHEMERIS_TYPE":"0","COUNTRY_CODE":"US","EPOCH":"2022-03-08T21:23:34.757664","SEMIMAJOR_AXIS":"6925.410","LAUNCH_DATE":"2020-10-24","OBJECT_ID":"2020-074BG","ELEMENT_SET_NO":"999","BSTAR":"0.00000445050000","CLASSIFICATION_TYPE":"U","NORAD_CAT_ID":"46793","MEAN_MOTION_DOT":"-0.00000215","TLE_LINE2":"2 46793  53.0556  43.8890 0002014  50.8481 309.2687 15.06380113 76343","CENTER_NAME":"EARTH","MEAN_MOTION_DDOT":"0.0000000000000","MEAN_MOTION":"15.06380113","ECCENTRICITY":"0.00020140","GP_ID":"198272980","ARG_OF_PERICENTER":"50.8481","MEAN_ELEMENT_THEORY":"SGP4","PERIOD":"95.593","MEAN_ANOMALY":"309.2687","INCLINATION":"53.0556","FILE":"3351330","RA_OF_ASC_NODE":"43.8890","RCS_SIZE":"LARGE","TIME_SYSTEM":"UTC","TLE_LINE1":"1 46793U 20074BG  22067.89137451 -.00000215  00000-0  44505-5 0  9999","REF_FRAME":"TEME","OBJECT_TYPE":"PAYLOAD","SITE":"AFETR"},{"MEAN_ANOMALY":"310.6085","PERIOD":"95.592","ECCENTRICITY":"0.00020200","GP_ID":"198273230","MEAN_MOTION":"15.06395240","MEAN_ELEMENT_THEORY":"SGP4","ARG_OF_PERICENTER":"49.5079","MEAN_MOTION_DDOT":"0.0000000000000","BSTAR":"-0.00009775400000","CLASSIFICATION_TYPE":"U","TLE_LINE2":"2 46794  53.0548  45.0484 0002020  49.5079 310.6085 15.06395240 76315","CENTER_NAME":"EARTH","MEAN_MOTION_DOT":"-0.00001737","NORAD_CAT_ID":"46794","SITE":"AFETR","OBJECT_TYPE":"PAYLOAD","TLE_LINE1":"1 46794U 20074BH  22067.63334027 -.00001737  00000-0 -97754-4 0  9994","REF_FRAME":"TEME","TIME_SYSTEM":"UTC","RCS_SIZE":"LARGE","RA_OF_ASC_NODE":"45.0484","FILE":"3351330","INCLINATION":"53.0548","OBJECT_NAME":"STARLINK-1942","DECAY_DATE":null,"APOAPSIS":"548.627","REV_AT_EPOCH":"7631","PERIAPSIS":"545.829","OBJECT_ID":"2020-074BH","ELEMENT_SET_NO":"999","SEMIMAJOR_AXIS":"6925.363","EPOCH":"2022-03-08T15:12:00.599328","LAUNCH_DATE":"2020-10-24","COUNTRY_CODE":"US","EPHEMERIS_TYPE":"0"},{"DECAY_DATE":null,"APOAPSIS":"548.585","OBJECT_NAME":"STARLINK-1944","PERIAPSIS":"545.913","REV_AT_EPOCH":"7639","SEMIMAJOR_AXIS":"6925.384","EPOCH":"2022-03-08T06:38:30.321312","LAUNCH_DATE":"2020-10-24","OBJECT_ID":"2020-074BK","ELEMENT_SET_NO":"999","EPHEMERIS_TYPE":"0","COUNTRY_CODE":"US","GP_ID":"198240035","ECCENTRICITY":"0.00019290","MEAN_MOTION":"15.06388424","MEAN_ELEMENT_THEORY":"SGP4","ARG_OF_PERICENTER":"44.1444","PERIOD":"95.593","MEAN_ANOMALY":"315.9699","BSTAR":"-0.00005584900000","CLASSIFICATION_TYPE":"U","CENTER_NAME":"EARTH","TLE_LINE2":"2 46796  53.0568  36.6514 0001929  44.1444 315.9699 15.06388424 76396","MEAN_MOTION_DOT":"-0.00001113","NORAD_CAT_ID":"46796","MEAN_MOTION_DDOT":"0.0000000000000","TLE_LINE1":"1 46796U 20074BK  22067.27673983 -.00001113  00000-0 -55849-4 0  9990","REF_FRAME":"TEME","OBJECT_TYPE":"PAYLOAD","SITE":"AFETR","FILE":"3350976","INCLINATION":"53.0568","RCS_SIZE":"LARGE","TIME_SYSTEM":"UTC","RA_OF_ASC_NODE":"36.6514"},{"LAUNCH_DATE":"2020-10-24","EPOCH":"2022-03-08T20:28:25.413024","SEMIMAJOR_AXIS":"6730.951","ELEMENT_SET_NO":"999","OBJECT_ID":"2020-074BL","EPHEMERIS_TYPE":"0","COUNTRY_CODE":"US","APOAPSIS":"358.538","DECAY_DATE":null,"OBJECT_NAME":"STARLINK-1947","REV_AT_EPOCH":"7760","PERIAPSIS":"347.094","REF_FRAME":"TEME","TLE_LINE1":"1 46797U 20074BL  22067.85307191  .00037602  00000-0  28317-3 0  9999","SITE":"AFETR","OBJECT_TYPE":"PAYLOAD","INCLINATION":"53.0523","FILE":"3351330","RA_OF_ASC_NODE":"314.8515","TIME_SYSTEM":"UTC","RCS_SIZE":"LARGE","ARG_OF_PERICENTER":"277.4939","MEAN_ELEMENT_THEORY":"SGP4","MEAN_MOTION":"15.72128855","ECCENTRICITY":"0.00085010","GP_ID":"198273732","MEAN_ANOMALY":"82.5113","PERIOD":"91.596","NORAD_CAT_ID":"46797","MEAN_MOTION_DOT":"0.00037602","CENTER_NAME":"EARTH","TLE_LINE2":"2 46797  53.0523 314.8515 0008501 277.4939  82.5113 15.72128855 77609","BSTAR":"0.00028317000000","CLASSIFICATION_TYPE":"U","MEAN_MOTION_DDOT":"0.0000000000000"},{"MEAN_MOTION_DDOT":"0.0000000000000","TLE_LINE2":"2 46798  53.0553  59.1245 0001732  60.8507 299.2655 15.06400232 76130","CENTER_NAME":"EARTH","NORAD_CAT_ID":"46798","MEAN_MOTION_DOT":"0.00000227","CLASSIFICATION_TYPE":"U","BSTAR":"0.00003417400000","PERIOD":"95.592","MEAN_ANOMALY":"299.2655","MEAN_ELEMENT_THEORY":"SGP4","ARG_OF_PERICENTER":"60.8507","ECCENTRICITY":"0.00017320","GP_ID":"198272480","MEAN_MOTION":"15.06400232","TIME_SYSTEM":"UTC","RCS_SIZE":"LARGE","RA_OF_ASC_NODE":"59.1245","FILE":"3351330","INCLINATION":"53.0553","SITE":"AFETR","OBJECT_TYPE":"PAYLOAD","REF_FRAME":"TEME","TLE_LINE1":"1 46798U 20074BM  22067.83927431  .00000227  00000-0  34174-4 0  9995","PERIAPSIS":"546.013","REV_AT_EPOCH":"7613","OBJECT_NAME":"STARLINK-1948","DECAY_DATE":null,"APOAPSIS":"548.412","COUNTRY_CODE":"US","EPHEMERIS_TYPE":"0","ELEMENT_SET_NO":"999","OBJECT_ID":"2020-074BM","LAUNCH_DATE":"2020-10-24","SEMIMAJOR_AXIS":"6925.348","EPOCH":"2022-03-08T20:08:33.300384"},{"OBJECT_NAME":"STARLINK-1777","APOAPSIS":"548.225","DECAY_DATE":null,"PERIAPSIS":"546.288","REV_AT_EPOCH":"7143","OBJECT_ID":"2020-088A","ELEMENT_SET_NO":"999","EPOCH":"2022-03-08T09:29:39.771744","SEMIMAJOR_AXIS":"6925.391","LAUNCH_DATE":"2020-11-25","COUNTRY_CODE":"US","EPHEMERIS_TYPE":"0","MEAN_ANOMALY":"294.3428","PERIOD":"95.593","MEAN_MOTION":"15.06386014","GP_ID":"198240323","ECCENTRICITY":"0.00013980","ARG_OF_PERICENTER":"65.7707","MEAN_ELEMENT_THEORY":"SGP4","MEAN_MOTION_DDOT":"0.0000000000000","CLASSIFICATION_TYPE":"U","BSTAR":"-0.00021337000000","NORAD_CAT_ID":"47122","MEAN_MOTION_DOT":"-0.00003457","CENTER_NAME":"EARTH","TLE_LINE2":"2 47122  53.0546  26.1017 0001398  65.7707 294.3428 15.06386014 71432","SITE":"AFETR","OBJECT_TYPE":"PAYLOAD","TLE_LINE1":"1 47122U 20088A   22067.39559921 -.00003457  00000-0 -21337-3 0  9994","REF_FRAME":"TEME","RA_OF_ASC_NODE":"26.1017","TIME_SYSTEM":"UTC","RCS_SIZE":"LARGE","INCLINATION":"53.0546","FILE":"3350976"},{"REV_AT_EPOCH":"7169","PERIAPSIS":"546.121","DECAY_DATE":null,"APOAPSIS":"548.325","OBJECT_NAME":"STARLINK-1785","EPHEMERIS_TYPE":"0","COUNTRY_CODE":"US","SEMIMAJOR_AXIS":"6925.358","EPOCH":"2022-03-08T13:55:41.414880","LAUNCH_DATE":"2020-11-25","OBJECT_ID":"2020-088C","ELEMENT_SET_NO":"999","BSTAR":"-0.00004841500000","CLASSIFICATION_TYPE":"U","TLE_LINE2":"2 47124  53.0559  30.2874 0001591  64.3534 295.7619 15.06396936 71692","CENTER_NAME":"EARTH","MEAN_MOTION_DOT":"-0.00001003","NORAD_CAT_ID":"47124","MEAN_MOTION_DDOT":"0.0000000000000","ECCENTRICITY":"0.00015910","GP_ID":"198246004","MEAN_MOTION":"15.06396936","MEAN_ELEMENT_THEORY":"SGP4","ARG_OF_PERICENTER":"64.3534","MEAN_ANOMALY":"295.7619","PERIOD":"95.592","FILE":"3351074","INCLINATION":"53.0559","TIME_SYSTEM":"UTC","RCS_SIZE":"LARGE","RA_OF_ASC_NODE":"30.2874","TLE_LINE1":"1 47124U 20088C   22067.58034045 -.00001003  00000-0 -48415-4 0  9994","REF_FRAME":"TEME","OBJECT_TYPE":"PAYLOAD","SITE":"AFETR"},{"MEAN_MOTION":"15.06385159","ECCENTRICITY":"0.00016810","GP_ID":"198238821","ARG_OF_PERICENTER":"62.8785","MEAN_ELEMENT_THEORY":"SGP4","MEAN_ANOMALY":"297.2375","PERIOD":"95.593","BSTAR":"-0.00022632000000","CLASSIFICATION_TYPE":"U","MEAN_MOTION_DOT":"-0.00003650","NORAD_CAT_ID":"47126","TLE_LINE2":"2 47126  53.0541  27.1810 0001681  62.8785 297.2375 15.06385159 71401","CENTER_NAME":"EARTH","MEAN_MOTION_DDOT":"0.0000000000000","TLE_LINE1":"1 47126U 20088E   22067.15601905 -.00003650  00000-0 -22632-3 0  9996","REF_FRAME":"TEME","OBJECT_TYPE":"PAYLOAD","SITE":"AFETR","INCLINATION":"53.0541","FILE":"3350976","RA_OF_ASC_NODE":"27.1810","RCS_SIZE":"LARGE","TIME_SYSTEM":"UTC","APOAPSIS":"548.423","DECAY_DATE":null,"OBJECT_NAME":"STARLINK-1812","PERIAPSIS":"546.095","REV_AT_EPOCH":"7140","EPOCH":"2022-03-08T03:44:40.045920","SEMIMAJOR_AXIS":"6925.394","LAUNCH_DATE":"2020-11-25","OBJECT_ID":"2020-088E","ELEMENT_SET_NO":"999","EPHEMERIS_TYPE":"0","COUNTRY_CODE":"US"}];
